{
  "type": "FeatureCollection",
  "features": [
    {
      "type": "Feature",
      "properties": {
        "norad_id": 34079,
        "name": "IRIDIUM 33 DEB",
        "group": "iridium-33-debris",
        "lat": -29.069119106902853,
        "lon": 1.881051310448575,
        "alt_km": 620.2662571351593,
        "timestamp": "2025-12-23T05:02:12.415044+00:00",
        "meta_object_name": "IRIDIUM 33 DEB",
        "meta_object_id": "1997-051CN",
        "meta_epoch": "2025-12-21T13:15:26.349984",
        "meta_mean_motion": 14.83733705,
        "meta_eccentricity": 0.000457,
        "meta_inclination": 86.3769,
        "meta_ra_of_asc_node": 4.6535,
        "meta_arg_of_pericenter": 336.3629,
        "meta_mean_anomaly": 147.0439,
        "meta_ephemeris_type": 0,
        "meta_classification_type": "U",
        "meta_norad_cat_id": 34079,
        "meta_element_set_no": 999,
        "meta_rev_at_epoch": 89108,
        "meta_bstar": 0.0012935,
        "meta_mean_motion_dot": 0.00010729,
        "meta_mean_motion_ddot": 0,
        "tle_line1": "1 34079U 97051CN  25355.55238831  .00010729  00000+0  12935-2 0  9990",
        "tle_line2": "2 34079  86.3769   4.6535 0004570 336.3629 147.0439 14.83733705891080"
      },
      "geometry": {
        "type": "Point",
        "coordinates": [
          1.881051310448575,
          -29.069119106902853
        ]
      }
    },
    {
      "type": "Feature",
      "properties": {
        "norad_id": 34088,
        "name": "IRIDIUM 33 DEB",
        "group": "iridium-33-debris",
        "lat": 1.6109432390928997,
        "lon": 26.01287621726842,
        "alt_km": 598.8994547804941,
        "timestamp": "2025-12-23T05:02:12.415055+00:00",
        "meta_object_name": "IRIDIUM 33 DEB",
        "meta_object_id": "1997-051CX",
        "meta_epoch": "2025-12-22T20:09:23.733792",
        "meta_mean_motion": 14.9180728,
        "meta_eccentricity": 0.00068167,
        "meta_inclination": 86.3835,
        "meta_ra_of_asc_node": 26.0811,
        "meta_arg_of_pericenter": 144.8678,
        "meta_mean_anomaly": 31.0989,
        "meta_ephemeris_type": 0,
        "meta_classification_type": "U",
        "meta_norad_cat_id": 34088,
        "meta_element_set_no": 999,
        "meta_rev_at_epoch": 88892,
        "meta_bstar": 0.0023808033,
        "meta_mean_motion_dot": 0.00024099,
        "meta_mean_motion_ddot": 0,
        "tle_line1": "1 34088U 97051CX  25356.83985803  .00024099  00000+0  23808-2 0  9996",
        "tle_line2": "2 34088  86.3835  26.0811 0006816 144.8678  31.0989 14.91807280888920"
      },
      "geometry": {
        "type": "Point",
        "coordinates": [
          26.01287621726842,
          1.6109432390928997
        ]
      }
    },
    {
      "type": "Feature",
      "properties": {
        "norad_id": 34091,
        "name": "IRIDIUM 33 DEB",
        "group": "iridium-33-debris",
        "lat": -12.677451650732078,
        "lon": -117.13862037216187,
        "alt_km": 615.0261866291703,
        "timestamp": "2025-12-23T05:02:12.415065+00:00",
        "meta_object_name": "IRIDIUM 33 DEB",
        "meta_object_id": "1997-051DA",
        "meta_epoch": "2025-12-22T15:12:28.903968",
        "meta_mean_motion": 14.82502954,
        "meta_eccentricity": 0.00341969,
        "meta_inclination": 86.3411,
        "meta_ra_of_asc_node": 62.3008,
        "meta_arg_of_pericenter": 257.7547,
        "meta_mean_anomaly": 101.9845,
        "meta_ephemeris_type": 0,
        "meta_classification_type": "U",
        "meta_norad_cat_id": 34091,
        "meta_element_set_no": 999,
        "meta_rev_at_epoch": 88013,
        "meta_bstar": 0.0048076531,
        "meta_mean_motion_dot": 0.00039186,
        "meta_mean_motion_ddot": 0,
        "tle_line1": "1 34091U 97051DA  25356.63366787  .00039186  00000+0  48077-2 0  9990",
        "tle_line2": "2 34091  86.3411  62.3008 0034196 257.7547 101.9845 14.82502954880139"
      },
      "geometry": {
        "type": "Point",
        "coordinates": [
          -117.13862037216187,
          -12.677451650732078
        ]
      }
    },
    {
      "type": "Feature",
      "properties": {
        "norad_id": 34097,
        "name": "IRIDIUM 33 DEB",
        "group": "iridium-33-debris",
        "lat": 80.46875472304993,
        "lon": 153.4666544111383,
        "alt_km": 806.1121020014889,
        "timestamp": "2025-12-23T05:02:12.415075+00:00",
        "meta_object_name": "IRIDIUM 33 DEB",
        "meta_object_id": "1997-051DG",
        "meta_epoch": "2025-12-22T10:10:07.648896",
        "meta_mean_motion": 14.34850685,
        "meta_eccentricity": 0.00816282,
        "meta_inclination": 86.1999,
        "meta_ra_of_asc_node": 357.1326,
        "meta_arg_of_pericenter": 330.4879,
        "meta_mean_anomaly": 29.172,
        "meta_ephemeris_type": 0,
        "meta_classification_type": "U",
        "meta_norad_cat_id": 34097,
        "meta_element_set_no": 999,
        "meta_rev_at_epoch": 87258,
        "meta_bstar": 0.0014468202,
        "meta_mean_motion_dot": 4.282e-05,
        "meta_mean_motion_ddot": 0,
        "tle_line1": "1 34097U 97051DG  25356.42369964  .00004282  00000+0  14468-2 0  9999",
        "tle_line2": "2 34097  86.1999 357.1326 0081628 330.4879  29.1720 14.34850685872588"
      },
      "geometry": {
        "type": "Point",
        "coordinates": [
          153.4666544111383,
          80.46875472304993
        ]
      }
    },
    {
      "type": "Feature",
      "properties": {
        "norad_id": 34145,
        "name": "IRIDIUM 33 DEB",
        "group": "iridium-33-debris",
        "lat": -70.34617206093611,
        "lon": -42.82646143855549,
        "alt_km": 784.0775781158436,
        "timestamp": "2025-12-23T05:02:12.415086+00:00",
        "meta_object_name": "IRIDIUM 33 DEB",
        "meta_object_id": "1997-051DY",
        "meta_epoch": "2025-12-22T16:02:40.191072",
        "meta_mean_motion": 14.42355185,
        "meta_eccentricity": 0.0055643,
        "meta_inclination": 86.2124,
        "meta_ra_of_asc_node": 328.1041,
        "meta_arg_of_pericenter": 62.2939,
        "meta_mean_anomaly": 298.3891,
        "meta_ephemeris_type": 0,
        "meta_classification_type": "U",
        "meta_norad_cat_id": 34145,
        "meta_element_set_no": 999,
        "meta_rev_at_epoch": 87781,
        "meta_bstar": 0.0011008747,
        "meta_mean_motion_dot": 3.725e-05,
        "meta_mean_motion_ddot": 0,
        "tle_line1": "1 34145U 97051DY  25356.66852073  .00003725  00000+0  11009-2 0  9996",
        "tle_line2": "2 34145  86.2124 328.1041 0055643  62.2939 298.3891 14.42355185877814"
      },
      "geometry": {
        "type": "Point",
        "coordinates": [
          -42.82646143855549,
          -70.34617206093611
        ]
      }
    },
    {
      "type": "Feature",
      "properties": {
        "norad_id": 34146,
        "name": "IRIDIUM 33 DEB",
        "group": "iridium-33-debris",
        "lat": -1.892516964278273,
        "lon": 165.29755613194206,
        "alt_km": 713.0449416695974,
        "timestamp": "2025-12-23T05:02:12.415096+00:00",
        "meta_object_name": "IRIDIUM 33 DEB",
        "meta_object_id": "1997-051DZ",
        "meta_epoch": "2025-12-22T12:12:34.513056",
        "meta_mean_motion": 14.49108605,
        "meta_eccentricity": 0.0026525,
        "meta_inclination": 86.2838,
        "meta_ra_of_asc_node": 345.4841,
        "meta_arg_of_pericenter": 187.7667,
        "meta_mean_anomaly": 298.6983,
        "meta_ephemeris_type": 0,
        "meta_classification_type": "U",
        "meta_norad_cat_id": 34146,
        "meta_element_set_no": 999,
        "meta_rev_at_epoch": 88248,
        "meta_bstar": 0.00085220356,
        "meta_mean_motion_dot": 3.272e-05,
        "meta_mean_motion_ddot": 0,
        "tle_line1": "1 34146U 97051DZ  25356.50873279  .00003272  00000+0  85220-3 0  9995",
        "tle_line2": "2 34146  86.2838 345.4841 0026525 187.7667 298.6983 14.49108605882489"
      },
      "geometry": {
        "type": "Point",
        "coordinates": [
          165.29755613194206,
          -1.892516964278273
        ]
      }
    },
    {
      "type": "Feature",
      "properties": {
        "norad_id": 34159,
        "name": "IRIDIUM 33 DEB",
        "group": "iridium-33-debris",
        "lat": -38.40759490974481,
        "lon": -133.32215482381696,
        "alt_km": 754.2283939936033,
        "timestamp": "2025-12-23T05:02:12.415106+00:00",
        "meta_object_name": "IRIDIUM 33 DEB",
        "meta_object_id": "1997-051EN",
        "meta_epoch": "2025-12-22T02:58:50.860992",
        "meta_mean_motion": 14.38515401,
        "meta_eccentricity": 0.00260752,
        "meta_inclination": 86.3498,
        "meta_ra_of_asc_node": 44.2398,
        "meta_arg_of_pericenter": 254.6532,
        "meta_mean_anomaly": 105.1785,
        "meta_ephemeris_type": 0,
        "meta_classification_type": "U",
        "meta_norad_cat_id": 34159,
        "meta_element_set_no": 999,
        "meta_rev_at_epoch": 88094,
        "meta_bstar": 0.00034381361,
        "meta_mean_motion_dot": 1.073e-05,
        "meta_mean_motion_ddot": 0,
        "tle_line1": "1 34159U 97051EN  25356.12419978  .00001073  00000+0  34381-3 0  9998",
        "tle_line2": "2 34159  86.3498  44.2398 0026075 254.6532 105.1785 14.38515401880947"
      },
      "geometry": {
        "type": "Point",
        "coordinates": [
          -133.32215482381696,
          -38.40759490974481
        ]
      }
    }
  ]
}